OUFTI-1                 
1 41458U 16025C   22312.73268447  .00026049  00000+0  99210-3 0  9991
2 41458  98.1916 130.7708 0131545 133.1110 228.1217 15.18912855359446
E-ST@R-II               
1 41459U 16025D   22312.73532492  .00026352  00000+0  10369-2 0  9990
2 41459  98.1935 129.0395 0135853 138.3962 222.7761 15.17398751359344
AAUSAT 4                
1 41460U 16025E   22312.78264588  .00041252  00000+0  13414-2 0  9995
2 41460  98.1802 136.8052 0110134 109.2022 252.1460 15.26008124359899
AIST-2D (RS-48)         
1 41465U 16026B   22312.73141884  .00028049  00000+0  58354-3 0  9991
2 41465  97.0314 184.3726 0007949 339.4724  94.1073 15.45559960365780
NUSAT-1 (FRESCO)        
1 41557U 16033B   22312.78580836  .00028273  00000+0  73216-3 0  9993
2 41557  97.3910  51.0999 0009763 213.9753 302.3210 15.38969093359541
NUSAT-2 (BATATA)        
1 41558U 16033C   22312.76598253  .00027736  00000+0  67546-3 0  9996
2 41558  97.4147  57.6153 0009462 202.4610 310.1877 15.40851536359833
CARTOSAT-2C             
1 41599U 16040A   22312.72139622  .00006276  00000+0  30040-3 0  9991
2 41599  97.4699  10.9222 0014025  42.4375  52.9961 15.19230827353839
SATHYABAMASAT           
1 41600U 16040B   22312.40574248  .00035009  00000+0  91608-3 0  9999
2 41600  97.2011   1.7290 0008311 331.6285  28.4507 15.38617696354980
LAPAN-A3                
1 41603U 16040E   22312.72708870  .00002287  00000+0  10557-3 0  9993
2 41603  97.1913 343.3893 0013537  21.0822  87.8202 15.21102082353968
BIROS                   
1 41604U 16040F   22312.37272074  .00006280  00000+0  25008-3 0  9991
2 41604  97.1941 351.3335 0011005 353.5618   6.5477 15.25526646354394
SWAYAM                  
1 41607U 16040J   22312.39474087  .00030147  00000+0  82840-3 0  9990
2 41607  97.1966 359.6875 0008716 332.6623  27.4162 15.37131176354849
BEESAT-4                
1 41619U 16040W   22312.56490545  .00028219  00000+0  80891-3 0  9990
2 41619  97.1988 359.5853 0007014 329.2398  30.8434 15.35837459342800
3CAT-2                  
1 41732U 16051B   22312.62833513  .00024257  00000+0  66417-3 0  9997
2 41732  97.3815 235.9132 0012492 126.5082 353.8701 15.37247111347440
PRATHAM                 
1 41783U 16059A   22312.08180458  .00000788  00000+0  15965-3 0  9999
2 41783  97.8977 347.7780 0034696  80.6461 279.8663 14.63494639326631
ALSAT 1N                
1 41789U 16059G   22312.82929407  .00001483  00000+0  28462-3 0  9991
2 41789  97.8979 353.4007 0029055  61.7402 298.6703 14.64861234327009
LISHUI 1-01             
1 41845U 16066E   22312.83595809  .00072494  00000+0  58623-2 0  9999
2 41845  98.7215  96.5380 0182123 329.8861  29.2577 14.87363719318183
CARTOSAT-2D             
1 41948U 17008A   22312.53856083  .00007697  00000+0  36849-3 0  9991
2 41948  97.4478  10.3812 0006068 171.7998 188.3356 15.19217227317679
NAYIF-1 (EO-88)         
1 42017U 17008BX  22312.65022876  .00035754  00000+0  88490-3 0  9991
2 42017  97.2526  17.0018 0005614  91.8305 268.3584 15.40337000319222
ZHUHAI-1 02 (CAS-4B)    
1 42759U 17034B   22312.74810161  .00008094  00000+0  46038-3 0  9994
2 42759  43.0178 256.7583 0008846 127.1609 307.7275 15.13143301298204
ZHUHAI-1 01 (CAS-4A)    
1 42761U 17034D   22312.89971551  .00008226  00000+0  46644-3 0  9994
2 42761  43.0167 254.6033 0009120 129.2923 262.3973 15.13237340298231
UCLSAT                  
1 42765U 17036A   22312.34304068  .00019692  00000+0  60648-3 0  9992
2 42765  97.1805 350.6868 0009192 158.1376 202.0261 15.33623549299873
NIUSAT                  
1 42766U 17036B   22312.05792468  .00017431  00000+0  61799-3 0  9993
2 42766  97.1870 344.8575 0013152 168.1385 192.0167 15.29064558298728
CARTOSAT-2E             
1 42767U 17036C   22312.83210862  .00006740  00000+0  32251-3 0  9995
2 42767  97.4384  11.3165 0006840 232.0610 194.0373 15.19281412298282
LITUANICASAT-2          
1 42768U 17036D   22312.39837654  .00051622  00000+0  10872-2 0  9994
2 42768  97.1864 355.2629 0009695 138.5709 221.6277 15.45056623299394
AALTO-1                 
1 42775U 17036L   22312.05528257  .00013443  00000+0  49657-3 0  9994
2 42775  97.1822 344.4895 0012185 167.8814 192.2721 15.27784494298683
URSA MAIOR              
1 42776U 17036M   22312.04051443  .00015288  00000+0  55086-3 0  9994
2 42776  97.1837 345.3662 0011893 166.1178 194.0392 15.28575813298725
COMPASS 2               
1 42777U 17036N   22312.10716731  .00043206  00000+0  11284-2 0  9992
2 42777  97.1871 353.4257 0009613 144.8579 215.3302 15.38619046299186
MAX VALIER SAT          
1 42778U 17036P   22312.32300106  .00016419  00000+0  57227-3 0  9996
2 42778  97.1887 348.5676 0010579 164.1922 195.9651 15.29662628298873
PEGASUS                 
1 42784U 17036V   22312.09919835  .00020793  00000+0  66542-3 0  9992
2 42784  97.1828 349.5404 0009861 163.4231 196.7336 15.32382227298981
NUDTSAT                 
1 42787U 17036Y   22312.56965913  .00045934  00000+0  11333-2 0  9996
2 42787  97.1855 355.4069 0008153 145.9370 214.2393 15.40360647299227
SUCHAI                  
1 42788U 17036Z   22312.35296352  .00023048  00000+0  67654-3 0  9998
2 42788  97.1822 351.8760 0009236 156.0166 204.1510 15.35113520299228
SKCUBE                  
1 42789U 17036AA  22312.37221192  .00019345  00000+0  59115-3 0  9999
2 42789  97.1820 351.1608 0009395 156.9342 203.2324 15.33873887299109
VZLUSAT-1               
1 42790U 17036AB  22311.88187448  .00046572  00000+0  11638-2 0  9990
2 42790  97.1840 354.6575 0008112 147.3171 212.8579 15.39967843299261
ROBUSTA-1B              
1 42792U 17036AD  22312.39758164  .00022299  00000+0  66265-3 0  9995
2 42792  97.1822 351.8819 0008833 156.2695 203.8958 15.34735786299167
D-SAT                   
1 42794U 17036AF  22312.71604148  .00004883  00000+0  40851-3 0  9997
2 42794  97.4555 310.6057 0120462 322.6599  36.6292 14.93386405293034
NORSAT 2                
1 42828U 17042D   22312.17825008  .00003299  00000+0  31823-3 0  9991
2 42828  97.4105 160.4452 0012460 240.4324 119.5655 14.93466170289615
TECHNOSAT               
1 42829U 17042E   22312.34013513  .00002058  00000+0  20660-3 0  9990
2 42829  97.4026 157.9926 0012359 243.2975 116.6981 14.92255619289540
2017-042F               
1 42830U 17042F   22312.51206430  .00010859  00000+0  95905-3 0  9995
2 42830  97.4148 163.5370 0011782 229.8027 130.2164 14.96473650289816
FLYING LAPTOP           
1 42831U 17042G   22312.39472193  .00002162  00000+0  21763-3 0  9992
2 42831  97.4049 158.3828 0012310 243.7458 116.2501 14.92092245289551
CORVUS BC2              
1 42846U 17042X   22312.10284582  .00002317  00000+0  22599-3 0  9990
2 42846  97.4031 161.1832 0007999 230.1892 129.8625 14.93318019289710
CORVUS BC1              
1 42847U 17042Y   22312.37508052  .00001836  00000+0  17983-3 0  9997
2 42847  97.4028 161.7687 0007780 227.6495 132.4067 14.93396136289760
CZ-4C R/B               
1 43012U 17072C   22312.41069874  .00000429  00000+0  98516-4 0  9993
2 43012  98.6815 354.6087 0126120 236.8804 122.0237 14.56443004264814
RADFXSAT (FOX-1B)       
1 43017U 17073E   22312.26385630  .00005387  00000+0  39680-3 0  9997
2 43017  97.6549 200.5165 0246554  76.5449 286.3112 14.82500280268411
EAGLESAT 1              
1 43018U 17073F   22312.22901852  .00011210  00000+0  78335-3 0  9996
2 43018  97.6596 202.8558 0236778  68.8683 293.7663 14.85482023268427
INS-1C                  
1 43116U 18004F   22312.18775210  .00022447  00000+0  68591-3 0  9999
2 43116  97.3646  27.4076 0007039 191.6782 168.4299 15.33868776268336
FLOCK 3P'-3             
1 43119U 18004J   22312.17429479  .00041667  00000+0  14384-2 0  9999
2 43119  97.3626  24.6458 0007726 212.1382 147.9388 15.29808043268166
FLOCK 3P'-2             
1 43120U 18004K   22312.67818516  .00025827  00000+0  90876-3 0  9991
2 43120  97.3630  24.6782 0007933 209.5750 150.5042 15.29287271268208
FLOCK 3P'-1             
1 43121U 18004L   22312.65409771  .00052156  00000+0  10782-2 0  9991
2 43121  97.3691  32.3221 0005818 176.3318 183.7975 15.45634100268636
FLOCK 3P'-4             
1 43122U 18004M   22312.66520720  .00031861  00000+0  11169-2 0  9991
2 43122  97.3644  24.8492 0007647 212.4197 147.6574 15.29367707268205
MICROMAS-2A             
1 43131U 18004W   22312.44820560  .00045064  00000+0  95947-3 0  9999
2 43131  97.3645  32.6715 0005300 187.0257 173.0919 15.44803051268737
PICSAT                  
1 43132U 18004X   22312.20540802  .00022949  00000+0  65927-3 0  9994
2 43132  97.3610  28.0732 0006796 194.3099 165.7953 15.35814802268432
CNUSAIL-1               
1 43133U 18004Y   22312.20223452  .00017250  00000+0  56800-3 0  9993
2 43133  97.3557  25.2268 0007266 203.5259 156.5651 15.31529304268271
2018-004Z               
1 43134U 18004Z   22312.67112957  .00021910  00000+0  66537-3 0  9998
2 43134  97.3588  27.4622 0006835 197.5849 162.5159 15.34071043268435
FOX-1D (AO-92)          
1 43137U 18004AC  22312.43699612  .00016206  00000+0  51582-3 0  9999
2 43137  97.3566  26.4610 0006755 200.5841 159.5130 15.32637964268374
STEP CUBE LAB           
1 43138U 18004AD  22312.67191975  .00043585  00000+0  10432-2 0  9993
2 43138  97.3649  31.7372 0005855 191.5638 168.5475 15.41309815268692
XIAOXIANG-2             
1 43155U 18008A   22312.76452837  .00014412  00000+0  71855-3 0  9997
2 43155  97.3354   6.5636 0014944   8.9786  88.0696 15.17543301265142
ZHOU ENLAI              
1 43156U 18008B   22312.73113586  .00014436  00000+0  72276-3 0  9994
2 43156  97.3397   6.4564 0012519  11.2060  84.6425 15.17426265265069
QUANTUTONG 1            
1 43158U 18008D   22312.41379325  .00011717  00000+0  61086-3 0  9992
2 43158  97.3355   3.8143 0012839  11.5103   0.6306 15.16048430264906
S-NET D                 
1 43186U 18014G   22312.29579642  .00003518  00000+0  29857-3 0  9990
2 43186  97.6484 215.2241 0010780 161.5729 198.5886 14.98510736260452
